CCSDS_OMM_VERS = 2.0
CREATION_DATE  = 
ORIGINATOR     = 

OBJECT_NAME    = STARLINK-36616
OBJECT_ID      = 2026-022AA
CENTER_NAME    = EARTH
REF_FRAME      = TEME
TIME_SYSTEM    = UTC
MEAN_ELEMENT_THEORY = SGP/SGP4

EPOCH          = 2026-02-24T11:36:17.373024
MEAN_MOTION    = 15.75235818
ECCENTRICITY   = .0001589
INCLINATION    = 97.2848
RA_OF_ASC_NODE = 88.8631
ARG_OF_PERICENTER = 104.0110
MEAN_ANOMALY   = 256.1332

EPHEMERIS_TYPE = 0
CLASSIFICATION_TYPE = U
NORAD_CAT_ID   = 67672
ELEMENT_SET_NO = 999
REV_AT_EPOCH   = 347
BSTAR          = .15519E-2
MEAN_MOTION_DOT = .238403E-2
MEAN_MOTION_DDOT = 0

CCSDS_OMM_VERS = 2.0
CREATION_DATE  = 
ORIGINATOR     = 

OBJECT_NAME    = COSMOS 2600
OBJECT_ID      = 2026-023A
CENTER_NAME    = EARTH
REF_FRAME      = TEME
TIME_SYSTEM    = UTC
MEAN_ELEMENT_THEORY = SGP/SGP4

EPOCH          = 2026-02-24T12:04:22.265472
MEAN_MOTION    = 15.83624094
ECCENTRICITY   = .0001364
INCLINATION    = 96.6460
RA_OF_ASC_NODE = 131.5597
ARG_OF_PERICENTER = 50.7128
MEAN_ANOMALY   = 309.4265

EPHEMERIS_TYPE = 0
CLASSIFICATION_TYPE = U
NORAD_CAT_ID   = 67674
ELEMENT_SET_NO = 999
REV_AT_EPOCH   = 296
BSTAR          = .43212E-3
MEAN_MOTION_DOT = .9514E-3
MEAN_MOTION_DDOT = 0

CCSDS_OMM_VERS = 2.0
CREATION_DATE  = 
ORIGINATOR     = 

OBJECT_NAME    = 2026-023B
OBJECT_ID      = 2026-023B
CENTER_NAME    = EARTH
REF_FRAME      = TEME
TIME_SYSTEM    = UTC
MEAN_ELEMENT_THEORY = SGP/SGP4

EPOCH          = 2026-02-24T12:17:47.084064
MEAN_MOTION    = 15.22639834
ECCENTRICITY   = .0018562
INCLINATION    = 96.6379
RA_OF_ASC_NODE = 129.9877
ARG_OF_PERICENTER = 177.0376
MEAN_ANOMALY   = 183.0976

EPHEMERIS_TYPE = 0
CLASSIFICATION_TYPE = U
NORAD_CAT_ID   = 67675
ELEMENT_SET_NO = 999
REV_AT_EPOCH   = 285
BSTAR          = .50069E-3
MEAN_MOTION_DOT = .11652E-3
MEAN_MOTION_DDOT = 0

CCSDS_OMM_VERS = 2.0
CREATION_DATE  = 
ORIGINATOR     = 

OBJECT_NAME    = 2026-023C
OBJECT_ID      = 2026-023C
CENTER_NAME    = EARTH
REF_FRAME      = TEME
TIME_SYSTEM    = UTC
MEAN_ELEMENT_THEORY = SGP/SGP4

EPOCH          = 2026-02-24T12:16:36.943680
MEAN_MOTION    = 15.22723830
ECCENTRICITY   = .0019728
INCLINATION    = 96.6414
RA_OF_ASC_NODE = 130.0055
ARG_OF_PERICENTER = 167.1935
MEAN_ANOMALY   = 192.9809

EPHEMERIS_TYPE = 0
CLASSIFICATION_TYPE = U
NORAD_CAT_ID   = 67676
ELEMENT_SET_NO = 999
REV_AT_EPOCH   = 301
BSTAR          = .5236E-3
MEAN_MOTION_DOT = .12227E-3
MEAN_MOTION_DDOT = 0

CCSDS_OMM_VERS = 2.0
CREATION_DATE  = 
ORIGINATOR     = 

OBJECT_NAME    = 2026-023D
OBJECT_ID      = 2026-023D
CENTER_NAME    = EARTH
REF_FRAME      = TEME
TIME_SYSTEM    = UTC
MEAN_ELEMENT_THEORY = SGP/SGP4

EPOCH          = 2026-02-24T12:18:52.949376
MEAN_MOTION    = 15.22563084
ECCENTRICITY   = .0019866
INCLINATION    = 96.6445
RA_OF_ASC_NODE = 129.9917
ARG_OF_PERICENTER = 172.1672
MEAN_ANOMALY   = 187.9881

EPHEMERIS_TYPE = 0
CLASSIFICATION_TYPE = U
NORAD_CAT_ID   = 67677
ELEMENT_SET_NO = 999
REV_AT_EPOCH   = 284
BSTAR          = .44884E-3
MEAN_MOTION_DOT = .10421E-3
MEAN_MOTION_DDOT = 0

CCSDS_OMM_VERS = 2.0
CREATION_DATE  = 
ORIGINATOR     = 

OBJECT_NAME    = 2026-023E
OBJECT_ID      = 2026-023E
CENTER_NAME    = EARTH
REF_FRAME      = TEME
TIME_SYSTEM    = UTC
MEAN_ELEMENT_THEORY = SGP/SGP4

EPOCH          = 2026-02-24T12:17:05.053920
MEAN_MOTION    = 15.22701761
ECCENTRICITY   = .0019685
INCLINATION    = 96.6338
RA_OF_ASC_NODE = 129.9829
ARG_OF_PERICENTER = 171.6231
MEAN_ANOMALY   = 188.5340

EPHEMERIS_TYPE = 0
CLASSIFICATION_TYPE = U
NORAD_CAT_ID   = 67678
ELEMENT_SET_NO = 999
REV_AT_EPOCH   = 284
BSTAR          = .53643E-3
MEAN_MOTION_DOT = .1252E-3
MEAN_MOTION_DDOT = 0

CCSDS_OMM_VERS = 2.0
CREATION_DATE  = 
ORIGINATOR     = 

OBJECT_NAME    = 2026-023F
OBJECT_ID      = 2026-023F
CENTER_NAME    = EARTH
REF_FRAME      = TEME
TIME_SYSTEM    = UTC
MEAN_ELEMENT_THEORY = SGP/SGP4

EPOCH          = 2026-02-24T12:14:37.442112
MEAN_MOTION    = 15.22847914
ECCENTRICITY   = .0021571
INCLINATION    = 96.6345
RA_OF_ASC_NODE = 132.4815
ARG_OF_PERICENTER = 166.6403
MEAN_ANOMALY   = 193.5411

EPHEMERIS_TYPE = 0
CLASSIFICATION_TYPE = U
NORAD_CAT_ID   = 67679
ELEMENT_SET_NO = 999
REV_AT_EPOCH   = 283
BSTAR          = .60627E-3
MEAN_MOTION_DOT = .14237E-3
MEAN_MOTION_DDOT = 0

CCSDS_OMM_VERS = 2.0
CREATION_DATE  = 
ORIGINATOR     = 

OBJECT_NAME    = 2026-023G
OBJECT_ID      = 2026-023G
CENTER_NAME    = EARTH
REF_FRAME      = TEME
TIME_SYSTEM    = UTC
MEAN_ELEMENT_THEORY = SGP/SGP4

EPOCH          = 2026-02-24T12:15:17.898048
MEAN_MOTION    = 15.22801790
ECCENTRICITY   = .0023158
INCLINATION    = 96.6272
RA_OF_ASC_NODE = 132.4715
ARG_OF_PERICENTER = 163.1800
MEAN_ANOMALY   = 197.0212

EPHEMERIS_TYPE = 0
CLASSIFICATION_TYPE = U
NORAD_CAT_ID   = 67680
ELEMENT_SET_NO = 999
REV_AT_EPOCH   = 283
BSTAR          = .5669E-3
MEAN_MOTION_DOT = .13302E-3
MEAN_MOTION_DDOT = 0

CCSDS_OMM_VERS = 2.0
CREATION_DATE  = 
ORIGINATOR     = 

OBJECT_NAME    = 2026-023H
OBJECT_ID      = 2026-023H
CENTER_NAME    = EARTH
REF_FRAME      = TEME
TIME_SYSTEM    = UTC
MEAN_ELEMENT_THEORY = SGP/SGP4

EPOCH          = 2026-02-24T12:15:06.266016
MEAN_MOTION    = 15.22774862
ECCENTRICITY   = .0023224
INCLINATION    = 96.6417
RA_OF_ASC_NODE = 132.4875
ARG_OF_PERICENTER = 162.5327
MEAN_ANOMALY   = 197.6715

EPHEMERIS_TYPE = 0
CLASSIFICATION_TYPE = U
NORAD_CAT_ID   = 67681
ELEMENT_SET_NO = 999
REV_AT_EPOCH   = 283
BSTAR          = .47243E-3
MEAN_MOTION_DOT = .11064E-3
MEAN_MOTION_DDOT = 0

CCSDS_OMM_VERS = 2.0
CREATION_DATE  = 
ORIGINATOR     = 

OBJECT_NAME    = 2026-023J
OBJECT_ID      = 2026-023J
CENTER_NAME    = EARTH
REF_FRAME      = TEME
TIME_SYSTEM    = UTC
MEAN_ELEMENT_THEORY = SGP/SGP4

EPOCH          = 2026-02-24T12:14:09.345696
MEAN_MOTION    = 15.22867742
ECCENTRICITY   = .0023394
INCLINATION    = 96.6372
RA_OF_ASC_NODE = 132.4959
ARG_OF_PERICENTER = 159.4101
MEAN_ANOMALY   = 200.8086

EPHEMERIS_TYPE = 0
CLASSIFICATION_TYPE = U
NORAD_CAT_ID   = 67682
ELEMENT_SET_NO = 999
REV_AT_EPOCH   = 283
BSTAR          = .6593E-3
MEAN_MOTION_DOT = .15517E-3
MEAN_MOTION_DDOT = 0

CCSDS_OMM_VERS = 2.0
CREATION_DATE  = 
ORIGINATOR     = 

OBJECT_NAME    = ISS OBJECT XZ
OBJECT_ID      = 1998-067XZ
CENTER_NAME    = EARTH
REF_FRAME      = TEME
TIME_SYSTEM    = UTC
MEAN_ELEMENT_THEORY = SGP/SGP4

EPOCH          = 2026-02-24T10:57:39.433824
MEAN_MOTION    = 15.50689363
ECCENTRICITY   = .0009936
INCLINATION    = 51.6306
RA_OF_ASC_NODE = 137.5433
ARG_OF_PERICENTER = 141.9387
MEAN_ANOMALY   = 218.2305

EPHEMERIS_TYPE = 0
CLASSIFICATION_TYPE = U
NORAD_CAT_ID   = 67683
ELEMENT_SET_NO = 999
REV_AT_EPOCH   = 273
BSTAR          = .58683E-3
MEAN_MOTION_DOT = .34066E-3
MEAN_MOTION_DDOT = 0

CCSDS_OMM_VERS = 2.0
CREATION_DATE  = 
ORIGINATOR     = 

OBJECT_NAME    = GXIBA-1
OBJECT_ID      = 1998-067YA
CENTER_NAME    = EARTH
REF_FRAME      = TEME
TIME_SYSTEM    = UTC
MEAN_ELEMENT_THEORY = SGP/SGP4

EPOCH          = 2026-02-24T12:14:55.458240
MEAN_MOTION    = 15.52162735
ECCENTRICITY   = .0011406
INCLINATION    = 51.6305
RA_OF_ASC_NODE = 137.1526
ARG_OF_PERICENTER = 133.9104
MEAN_ANOMALY   = 226.2829

EPHEMERIS_TYPE = 0
CLASSIFICATION_TYPE = U
NORAD_CAT_ID   = 67684
ELEMENT_SET_NO = 999
REV_AT_EPOCH   = 274
BSTAR          = .10731E-2
MEAN_MOTION_DOT = .66405E-3
MEAN_MOTION_DDOT = 0

