STARLINK-36616          
1 67672U 26022AA  26055.48353441  .00238403  00000+0  15519-2 0  9992
2 67672  97.2848  88.8631 0001589 104.0110 256.1332 15.75235818  3473
COSMOS 2600             
1 67674U 26023A   26055.50303548  .00095140  00000+0  43212-3 0  9992
2 67674  96.6460 131.5597 0001364  50.7128 309.4265 15.83624094  2969
2026-023B               
1 67675U 26023B   26055.51235051  .00011652  00000+0  50069-3 0  9991
2 67675  96.6379 129.9877 0018562 177.0376 183.0976 15.22639834  2851
2026-023C               
1 67676U 26023C   26055.51153870  .00012227  00000+0  52360-3 0  9995
2 67676  96.6414 130.0055 0019728 167.1935 192.9809 15.22723830  3012
2026-023D               
1 67677U 26023D   26055.51311284  .00010421  00000+0  44884-3 0  9997
2 67677  96.6445 129.9917 0019866 172.1672 187.9881 15.22563084  2845
2026-023E               
1 67678U 26023E   26055.51186405  .00012520  00000+0  53643-3 0  9998
2 67678  96.6338 129.9829 0019685 171.6231 188.5340 15.22701761  2846
2026-023F               
1 67679U 26023F   26055.51015558  .00014237  00000+0  60627-3 0  9996
2 67679  96.6345 132.4815 0021571 166.6403 193.5411 15.22847914  2836
2026-023G               
1 67680U 26023G   26055.51062382  .00013302  00000+0  56690-3 0  9992
2 67680  96.6272 132.4715 0023158 163.1800 197.0212 15.22801790  2832
2026-023H               
1 67681U 26023H   26055.51048919  .00011064  00000+0  47243-3 0  9990
2 67681  96.6417 132.4875 0023224 162.5327 197.6715 15.22774862  2835
2026-023J               
1 67682U 26023J   26055.50983039  .00015517  00000+0  65930-3 0  9991
2 67682  96.6372 132.4959 0023394 159.4101 200.8086 15.22867742  2830
ISS OBJECT XZ           
1 67683U 98067XZ  26055.45670641  .00034066  00000+0  58683-3 0  9992
2 67683  51.6306 137.5433 0009936 141.9387 218.2305 15.50689363  2738
GXIBA-1                 
1 67684U 98067YA  26055.51036410  .00066405  00000+0  10731-2 0  9993
2 67684  51.6305 137.1526 0011406 133.9104 226.2829 15.52162735  2742
